IRIDIUM 26              
1 24903U 97043A   25066.80616863  .00000659  00000+0  21593-3 0  9990
2 24903  86.4016 153.1969 0002376  93.5598 266.5871 14.37013270442650
IRIDIUM 22              
1 24907U 97043E   25066.79211012  .00000590  00000+0  19710-3 0  9991
2 24907  86.4027 156.6496 0002138  95.3096 264.8345 14.35841863442212
DUMMY MASS 1            
1 24925U 97048A   25066.39471217  .00000883  00000+0  95847-4 0  9998
2 24925  86.3414 182.3533 0008183 133.9527 226.2374 14.86840513490004
DUMMY MASS 2            
1 24926U 97048B   25066.33993317  .00000880  00000+0  96040-4 0  9996
2 24926  86.3413 183.9651 0008592 144.9082 215.2710 14.86593243489773
IRIDIUM 29              
1 24944U 97051A   25066.43237417  .00000772  00000+0  25749-3 0  9990
2 24944  86.4028 186.5311 0001893  98.4429 261.6983 14.36323923438663
IRIDIUM 33              
1 24946U 97051C   25066.79198481  .00000567  00000+0  19297-3 0  9991
2 24946  86.3944 185.6332 0009394  58.5615 301.6498 14.34794624438217
IRIDIUM 28              
1 24948U 97051E   25066.40200648  .00000758  00000+0  24785-3 0  9990
2 24948  86.4034 184.1205 0002457  89.3004 270.8475 14.37256122439223
IRIDIUM 36              
1 24967U 97056C   25066.45018467  .00000905  00000+0  29618-3 0  9991
2 24967  86.3985 215.6843 0002016  86.7656 273.3772 14.37455721437605
